IRIDIUM 39              
1 25042U 97069D   25354.40131533  .00000500  00000+0  12475-3 0  9999
2 25042  86.3922 131.3457 0019153  49.2321 311.0542 14.49515538475938
IRIDIUM 38              
1 25043U 97069E   25354.49132777  .00000349  00000+0  10809-3 0  9990
2 25043  86.3974 154.8480 0002115 146.5075 213.6257 14.38320702472739
IRIDIUM 42              
1 25077U 97077A   25354.51811485  .00000316  00000+0  10097-3 0  9992
2 25077  86.3980 161.2340 0001582 111.6564 248.4802 14.36538195467947
IRIDIUM 44              
1 25078U 97077B   25353.96926397  .00000291  00000+0  85299-4 0  9999
2 25078  86.3970 142.9045 0003635 113.5122 246.6460 14.40437359470441
IRIDIUM 45              
1 25104U 97082A   25353.92829005  .00025682  00000+0  72112-3 0  9999
2 25104  86.3539 317.1337 0097084 353.9964   6.0112 15.31704068480377
IRIDIUM 24              
1 25105U 97082B   25354.53361445  .00000326  00000+0  92667-4 0  9993
2 25105  86.3906   1.2447 0011514 171.0807 189.0600 14.42334400470078
IRIDIUM 51              
1 25262U 98018A   25354.39298177  .00075363  00000+0  76571-3 0  9990
2 25262  86.3730 322.3099 0046113 240.5600 119.1061 15.63545723475844
IRIDIUM 57              
1 25273U 98019B   25354.57621492  .00000259  00000+0  82202-4 0  9994
2 25273  86.3952  67.1032 0002175  98.4614 261.6830 14.36056583451535
